NORAD_CAT_ID,OBJECT_NAME,OBJECT_TYPE,EPOCH,MEAN_MOTION,ECCENTRICITY,INCLINATION,RA_OF_ASC_NODE,ARG_OF_PERICENTER,MEAN_ANOMALY,BSTAR,MEAN_MOTION_DOT,MEAN_MOTION_DDOT,TLE_LINE0,TLE_LINE1,TLE_LINE2,SEMIMAJOR_AXIS,PERIOD,APOGEE,PERIGEE,DECAYED
50845.0,STARLINK-3230,PAYLOAD,2023-02-21 11:19:50,15.08858351,0.0001075,53.2146,132.0599,120.1498,239.9601,0.0014142,0.00022302,0.0,0 STARLINK-3230,1 50845U 22001AU  23052.47211676  .00022302  00000-0  14142-2 0  9996,2 50845  53.2146 132.0599 0001075 120.1498 239.9601 15.08858351 62363,6917.824,95.436,540.433,538.946,0.0
50845.0,STARLINK-3230,PAYLOAD,2023-02-21 17:41:23,15.08872263,0.0001085,53.2145,130.8704,117.5121,242.5981,0.0017258,0.00027309,0.0,0 STARLINK-3230,1 50845U 22001AU  23052.73707213  .00027309  00000-0  17258-2 0  9995,2 50845  53.2145 130.8704 0001085 117.5121 242.5981 15.08872263 62404,6917.782,95.436,540.397,538.896,0.0
50845.0,STARLINK-3230,PAYLOAD,2023-02-21 22:27:32,15.08837595,3.39e-05,53.2148,129.9783,127.5724,232.5299,0.00012467,1.697e-05,0.0,0 STARLINK-3230,1 50845U 22001AU  23052.93579511  .00001697  00000-0  12467-3 0  9995,2 50845  53.2148 129.9783 0000339 127.5724 232.5299 15.08837595 63663,6917.888,95.438,539.987,539.518,0.0
50845.0,STARLINK-3230,PAYLOAD,2023-02-22 11:10:38,15.08846164,8.81e-05,53.2143,127.5987,91.2293,268.88,0.0019051,0.00030167,0.0,0 STARLINK-3230,1 50845U 22001AU  23053.46571883  .00030167  00000-0  19051-2 0  9997,2 50845  53.2143 127.5987 0000881  91.2293 268.8800 15.08846164 62513,6917.862,95.437,540.336,539.117,0.0
50845.0,STARLINK-3230,PAYLOAD,2023-02-22 22:18:20,15.08842625,0.0001324,53.2138,125.5182,74.3452,285.7686,0.0012686,0.00019961,0.0,0 STARLINK-3230,1 50845U 22001AU  23053.92940176  .00019961  00000-0  12686-2 0  9999,2 50845  53.2138 125.5182 0001324  74.3452 285.7686 15.08842625 62589,6917.872,95.437,540.653,538.821,0.0
50845.0,STARLINK-3230,PAYLOAD,2023-02-23 04:39:53,15.0883603,0.0001273,53.2146,124.3275,101.6757,258.4378,0.00055151,8.499e-05,0.0,0 STARLINK-3230,1 50845U 22001AU  23054.19436422  .00008499  00000-0  55151-3 0  9992,2 50845  53.2146 124.3275 0001273 101.6757 258.4378 15.08836030 63852,6917.893,95.438,540.638,538.877,0.0
50845.0,STARLINK-3230,PAYLOAD,2023-02-23 11:01:25,15.08831283,0.0001156,53.214,123.1369,103.4702,256.6419,0.0013629,0.00021464,0.0,0 STARLINK-3230,1 50845U 22001AU  23054.45932710  .00021464  00000-0  13629-2 0  9992,2 50845  53.2140 123.1369 0001156 103.4702 256.6419 15.08831283 62666,6917.907,95.438,540.572,538.972,0.0
50845.0,STARLINK-3230,PAYLOAD,2023-02-23 15:47:35,15.08837058,0.0001367,53.2144,122.2436,113.5951,246.5185,0.00094479,0.00014779,0.0,0 STARLINK-3230,1 50845U 22001AU  23054.65804708  .00014779  00000-0  94479-3 0  9993,2 50845  53.2144 122.2436 0001367 113.5951 246.5185 15.08837058 62694,6917.889,95.438,540.7,538.809,0.0
50845.0,STARLINK-3230,PAYLOAD,2023-02-24 04:30:40,15.08841415,0.0001481,53.2153,119.8644,107.8745,252.2409,0.00061298,9.481e-05,0.0,0 STARLINK-3230,1 50845U 22001AU  23055.18796917  .00009481  00000-0  61298-3 0  9991,2 50845  53.2153 119.8644 0001481 107.8745 252.2409 15.08841415 64003,6917.876,95.437,540.766,538.717,0.0
50845.0,STARLINK-3230,PAYLOAD,2023-02-24 10:52:12,15.08852429,0.0001394,53.2151,118.6767,104.7848,255.3299,0.00074274,0.00011556,0.0,0 STARLINK-3230,1 50845U 22001AU  23055.45292612  .00011556  00000-0  74274-3 0  9998,2 50845  53.2151 118.6767 0001394 104.7848 255.3299 15.08852429 62812,6917.842,95.437,540.672,538.743,0.0
50845.0,STARLINK-3230,PAYLOAD,2023-02-24 15:38:22,15.0885923,0.0001489,53.2152,117.7831,98.9531,261.163,0.00082784,0.00012919,0.0,0 STARLINK-3230,1 50845U 22001AU  23055.65164380  .00012919  00000-0  82784-3 0  9999,2 50845  53.2152 117.7831 0001489  98.9531 261.1630 15.08859230 64074,6917.822,95.436,540.717,538.657,0.0
50845.0,STARLINK-3230,PAYLOAD,2023-02-25 04:21:27,15.08826952,0.0001273,53.2152,115.4031,111.9686,248.1442,-0.00033046,-5.541e-05,0.0,0 STARLINK-3230,1 50845U 22001AU  23056.18157020 -.00005541  00000-0 -33046-3 0  9993,2 50845  53.2152 115.4031 0001273 111.9686 248.1442 15.08826952 64159,6917.92,95.438,540.666,538.905,0.0
50845.0,STARLINK-3230,PAYLOAD,2023-02-25 15:29:09,15.08836972,0.0001912,53.2145,113.319,124.6606,235.4567,0.00016713,2.373e-05,0.0,0 STARLINK-3230,1 50845U 22001AU  23056.64525099  .00002373  00000-0  16713-3 0  9999,2 50845  53.2145 113.3190 0001912 124.6606 235.4567 15.08836972 64225,6917.89,95.438,541.077,538.432,0.0
50845.0,STARLINK-3230,PAYLOAD,2023-02-25 20:15:19,15.08835733,0.0001604,53.2129,112.4325,98.5906,261.5268,0.00024678,3.641e-05,0.0,0 STARLINK-3230,1 50845U 22001AU  23056.84397453  .00003641  00000-0  24678-3 0  9990,2 50845  53.2129 112.4325 0001604  98.5906 261.5268 15.08835733 63026,6917.893,95.438,540.868,538.649,0.0
50845.0,STARLINK-3230,PAYLOAD,2023-02-26 08:58:23,15.08856977,0.0001044,53.2142,110.0525,89.0506,271.0606,0.00074383,0.00011575,0.0,0 STARLINK-3230,1 50845U 22001AU  23057.37388848  .00011575  00000-0  74383-3 0  9990,2 50845  53.2142 110.0525 0001044  89.0506 271.0606 15.08856977 64336,6917.828,95.436,540.416,538.971,0.0
50845.0,STARLINK-3230,PAYLOAD,2023-02-26 10:33:47,15.08863133,0.0001158,53.2155,109.7567,96.2311,263.8813,0.00099032,0.00015518,0.0,0 STARLINK-3230,1 50845U 22001AU  23057.44012755  .00015518  00000-0  99032-3 0  9998,2 50845  53.2155 109.7567 0001158  96.2311 263.8813 15.08863133 63117,6917.81,95.436,540.476,538.874,0.0
50845.0,STARLINK-3230,PAYLOAD,2023-02-26 20:06:05,15.08838629,0.000133,53.2154,107.9711,102.8067,257.3074,-0.00064589,-0.00010552,0.0,0 STARLINK-3230,1 50845U 22001AU  23057.83756768 -.00010552  00000-0 -64589-3 0  9994,2 50845  53.2154 107.9711 0001330 102.8067 257.3074 15.08838629 64403,6917.885,95.438,540.67,538.83,0.0
50845.0,STARLINK-3230,PAYLOAD,2023-02-27 15:10:43,15.08903232,0.0001164,53.2147,104.4028,105.9294,254.1827,0.0048365,0.00077668,0.0,0 STARLINK-3230,1 50845U 22001AU  23058.63244289  .00077668  00000-0  48365-2 0  9995,2 50845  53.2147 104.4028 0001164 105.9294 254.1827 15.08903232 64526,6917.687,95.434,540.357,538.747,0.0
50845.0,STARLINK-3230,PAYLOAD,2023-02-27 19:56:52,15.08862982,0.0001448,53.2154,103.5107,90.0465,270.0693,0.0016165,0.00025548,0.0,0 STARLINK-3230,1 50845U 22001AU  23058.83116657  .00025548  00000-0  16165-2 0  9997,2 50845  53.2154 103.5107 0001448  90.0465 270.0693 15.08862982 63322,6917.81,95.436,540.677,538.673,0.0
50845.0,STARLINK-3230,PAYLOAD,2023-02-28 07:04:34,15.08873984,0.0001595,53.2155,101.429,91.2641,268.8534,0.0016679,0.00026381,0.0,0 STARLINK-3230,1 50845U 22001AU  23059.29483959  .00026381  00000-0  16679-2 0  9996,2 50845  53.2155 101.4290 0001595  91.2641 268.8534 15.08873984 64622,6917.777,95.435,540.745,538.538,0.0
50845.0,STARLINK-3230,PAYLOAD,2023-02-28 11:50:43,15.08874888,0.0001228,53.2153,100.5368,84.0359,276.0773,0.001426,0.00022501,0.0,0 STARLINK-3230,1 50845U 22001AU  23059.49355493  .00022501  00000-0  14260-2 0  9993,2 50845  53.2153 100.5368 0001228  84.0359 276.0773 15.08874888 63422,6917.774,95.435,540.488,538.789,0.0
50845.0,STARLINK-3230,PAYLOAD,2023-02-28 19:47:39,15.08808786,9.5e-05,53.2155,99.0503,81.7366,278.3734,-0.0013768,-0.00022114,0.0,0 STARLINK-3230,1 50845U 22001AU  23059.82476379 -.00022114  00000-0 -13768-2 0  9991,2 50845  53.2155  99.0503 0000950  81.7366 278.3734 15.08808786 63471,6917.976,95.44,540.498,539.184,0.0
50845.0,STARLINK-3230,PAYLOAD,2023-03-01 10:06:09,15.08800097,0.0001527,53.215,96.3734,81.1934,278.9231,0.0015031,0.00023689,0.0,0 STARLINK-3230,1 50845U 22001AU  23060.42094394  .00023689  00000-0  15031-2 0  9993,2 50845  53.2150  96.3734 0001527  81.1934 278.9231 15.08800097 64799,6918.002,95.44,540.924,538.811,0.0
50845.0,STARLINK-3230,PAYLOAD,2023-03-01 19:38:29,15.08818113,0.0001553,53.2145,94.5903,80.8375,279.2793,0.0018491,0.00029245,0.0,0 STARLINK-3230,1 50845U 22001AU  23060.81839346  .00029245  00000-0  18491-2 0  9997,2 50845  53.2145  94.5903 0001553  80.8375 279.2793 15.08818113 63621,6917.947,95.439,540.887,538.738,0.0
50845.0,STARLINK-3230,PAYLOAD,2023-03-02 13:07:43,15.08862444,0.0001605,53.2146,91.319,80.7458,279.3716,0.0019184,0.00030394,0.0,0 STARLINK-3230,1 50845U 22001AU  23061.54703249  .00030394  00000-0  19184-2 0  9997,2 50845  53.2146  91.3190 0001605  80.7458 279.3716 15.08862444 63738,6917.812,95.436,540.787,538.566,0.0
50845.0,STARLINK-3230,PAYLOAD,2023-03-03 11:23:05,15.08897499,0.0001848,53.2152,87.1559,79.6317,280.4884,0.0019107,0.000303,0.0,0 STARLINK-3230,1 50845U 22001AU  23062.47437336  .00030300  00000-0  19107-2 0  9993,2 50845  53.2152  87.1559 0001848  79.6317 280.4884 15.08897499 65107,6917.705,95.434,540.848,538.291,0.0
50845.0,STARLINK-3230,PAYLOAD,2023-03-03 12:58:28,15.08903571,0.0001863,53.2152,86.8586,79.3699,280.7503,0.0019927,0.00031624,0.0,0 STARLINK-3230,1 50845U 22001AU  23062.54061033  .00031624  00000-0  19927-2 0  9998,2 50845  53.2152  86.8586 0001863  79.3699 280.7503 15.08903571 63883,6917.686,95.434,540.84,538.262,0.0
50845.0,STARLINK-3230,PAYLOAD,2023-03-04 06:27:43,15.08858208,0.0001665,53.2157,83.5866,102.5181,257.5997,0.0012693,0.00019981,0.0,0 STARLINK-3230,1 50845U 22001AU  23063.26924979  .00019981  00000-0  12693-2 0  9990,2 50845  53.2157  83.5866 0001665 102.5181 257.5997 15.08858208 65223,6917.825,95.436,540.842,538.538,0.0
50845.0,STARLINK-3230,PAYLOAD,2023-03-04 12:49:15,15.08874479,0.000167,53.2156,82.3954,104.2539,255.8639,0.0010872,0.00017073,0.0,0 STARLINK-3230,1 50845U 22001AU  23063.53420381  .00017073  00000-0  10872-2 0  9995,2 50845  53.2156  82.3954 0001670 104.2539 255.8639 15.08874479 64039,6917.775,95.435,540.795,538.485,0.0
50845.0,STARLINK-3230,PAYLOAD,2023-03-05 04:43:07,15.08839681,0.00015,53.2156,79.4236,112.0812,248.0339,0.0016114,0.0002545,0.0,0 STARLINK-3230,1 50845U 22001AU  23064.19661504  .00025450  00000-0  16114-2 0  9995,2 50845  53.2156  79.4236 0001500 112.0812 248.0339 15.08839681 65366,6917.881,95.438,540.784,538.709,0.0
